ONEWEB-0033             
1 45142U 20008M   26187.98164041 -.00000643  00000+0 -18778-2 0  9990
2 45142  87.8816  32.3324 0002104  98.9742 261.1623 13.10372028310809
ONEWEB-0035             
1 45143U 20008N   26188.00218639 -.00001758  00000+0 -50749-2 0  9990
2 45143  87.8819  32.3213 0001939  87.8332 272.3017 13.10355539310536
ONEWEB-0036             
1 45144U 20008P   26188.51433488 -.00000606  00000+0 -17738-2 0  9990
2 45144  87.8831  32.2356 0001749  79.6453 280.4871 13.10367803311020
ONEWEB-0038             
1 45145U 20008Q   26188.00603192 -.00000336  00000+0 -98254-3 0  9999
2 45145  87.8894  17.1332 0001351 150.4353 209.6851 13.11415121312921
ONEWEB-0039             
1 45146U 20008R   26187.98504435 -.00000320  00000+0 -95344-3 0  9996
2 45146  87.8813  32.3226 0001368  71.8892 288.2385 13.10372016310754
ONEWEB-0040             
1 45147U 20008S   26188.51274426 -.00000583  00000+0 -17058-2 0  9997
2 45147  87.8814  32.2279 0001959  77.7458 282.3889 13.10370338310526
ONEWEB-0043             
1 45149U 20008U   26188.51459646 -.00000616  00000+0 -18004-2 0  9997
2 45149  87.8823  32.2165 0001455  73.0042 287.1244 13.10366163310845
ONEWEB-0044             
1 45150U 20008V   26188.00884558  .00000488  00000+0  13612-2 0  9992
2 45150  87.8828  32.3184 0001798  80.6655 279.4676 13.10376751311071
ONEWEB-0045             
1 45151U 20008W   26188.45859191 -.00000130  00000+0 -40182-3 0  9996
2 45151  87.8888  17.0244 0001715  89.4357 270.6967 13.11414319313061
ONEWEB-0047             
1 45152U 20008X   26188.00187958  .00000139  00000+0  36126-3 0  9993
2 45152  87.8828  32.3193 0001812  92.9107 267.2228 13.10375864310798
ONEWEB-0048             
1 45153U 20008Y   26187.99691813 -.00000330  00000+0 -98266-3 0  9999
2 45153  87.8821  32.3396 0001829  88.5028 271.6309 13.10375907310403
ONEWEB-0049             
1 45154U 20008Z   26188.00017448  .00000088  00000+0  21636-3 0  9994
2 45154  87.8818  32.3280 0002076  75.2184 284.9173 13.10374759310627
ONEWEB-0051             
1 45155U 20008AA  26187.99912154 -.00000102  00000+0 -32314-3 0  9994
2 45155  87.8880  17.1220 0001846  89.5782 270.5558 13.11415711313680
ONEWEB-0052             
1 45156U 20008AB  26187.94450523  .00000815  00000+0  22988-2 0  9991
2 45156  87.8821  32.3263 0001951  76.2835 283.8509 13.10375102310522
ONEWEB-0053             
1 45157U 20008AC  26187.97654937 -.00000580  00000+0 -16979-2 0  9994
2 45157  87.8816  32.3404 0001653  71.0861 289.0446 13.10370475310509
ONEWEB-0054             
1 45158U 20008AD  26187.93587838  .00000604  00000+0  16941-2 0  9990
2 45158  87.8827  32.3334 0001908  84.2379 275.8966 13.10377029310611
